OBJECT_NAME,OBJECT_ID,EPOCH,MEAN_MOTION,ECCENTRICITY,INCLINATION,RA_OF_ASC_NODE,ARG_OF_PERICENTER,MEAN_ANOMALY,EPHEMERIS_TYPE,CLASSIFICATION_TYPE,NORAD_CAT_ID,ELEMENT_SET_NO,REV_AT_EPOCH,BSTAR,MEAN_MOTION_DOT,MEAN_MOTION_DDOT
YAMAL 401,2014-082A,2026-07-13T07:02:46.615776,1.00271458,.00001376,0.0047,330.6696,259.7372,256.3920,0,U,40345,999,4218,0,-.231E-5,0
ASTRA 2G,2014-089A,2026-07-13T06:45:18.290880,1.00274279,.00041883,0.0496,22.0412,56.4550,342.2175,0,U,40364,999,4222,0,.147E-5,0
FENGYUN 2G,2014-090A,2026-07-13T14:36:58.869216,1.00260655,.0004213,5.7033,72.4945,153.4413,24.0292,0,U,40367,999,4226,0,-.307E-5,0
MUOS-3,2015-002A,2026-07-13T06:32:56.975424,1.00269836,.00534015,4.5696,43.6218,177.3600,152.8651,0,U,40374,999,4184,0,-.135E-5,0
INMARSAT 5-F2,2015-005A,2026-07-13T02:56:12.522624,1.00271327,.00003763,0.0187,29.5311,66.5584,183.9611,0,U,40384,999,4125,0,-.287E-5,0
ABS-3A,2015-010A,2026-07-13T06:36:19.152288,1.00269960,.00016814,0.0120,33.5801,27.7191,325.9533,0,U,40424,999,4163,0,-.29E-6,0
EUTELSAT 115 WEST B,2015-010B,2026-07-12T14:40:37.705728,1.00271195,.00003721,0.0077,162.3972,285.0504,308.3118,0,U,40425,999,4163,0,-.24E-6,0
EXPRESS-AM7,2015-012A,2026-07-13T06:48:40.467744,1.00269233,.00026669,0.0142,58.0428,61.6402,313.6347,0,U,40505,999,4126,0,.148E-5,0
BEIDOU-3S IGSO-1S,2015-019A,2026-07-02T19:12:21.705408,1.00680073,.00768606,49.1798,295.2769,219.1125,144.2493,0,U,40549,999,4123,0,-.19E-5,0
THOR 7,2015-022A,2026-07-13T06:37:04.080288,1.00271275,.0002282,0.0147,103.8058,10.9562,274.9945,0,U,40613,999,4107,0,-.11E-6,0
TURKMENALEM52E/MONACOSAT,2015-023A,2026-07-13T05:09:22.708224,1.00270269,.00025658,0.0261,81.0311,40.1189,299.2927,0,U,40617,999,4110,0,.102E-5,0
DIRECTV 15,2015-026A,2026-07-12T14:43:59.882592,1.00272075,.00000986,0.0184,70.9457,201.8573,135.8290,0,U,40663,999,4071,0,-.102E-5,0
SKY MEXICO-1,2015-026B,2026-07-13T07:51:38.508192,1.00270516,.00023324,0.0163,21.9998,113.5664,194.7487,0,U,40664,999,4071,0,-.237E-5,0
METEOSAT-11 (MSG-4),2015-034A,2026-07-13T04:57:16.369344,1.00271240,.00022132,3.2644,70.9465,353.5989,310.1074,0,U,40732,999,747,0,.56E-6,0
STAR ONE C4,2015-034B,2026-07-12T11:28:04.226016,1.00270005,.00012949,0.0237,346.4388,104.1987,301.7496,0,U,40733,999,4026,0,-.264E-5,0
WGS F7 (USA 263),2015-036A,2026-07-13T02:19:00.842592,1.00271876,.00001818,0.0121,32.2334,162.1487,306.3532,0,U,40746,999,4013,0,.16E-6,0
INTELSAT 34 (IS-34),2015-039A,2026-07-13T02:29:54.049920,1.00271511,.0000492,0.0107,1.3438,353.9217,277.7081,0,U,40874,999,3989,0,-.287E-5,0
EUTELSAT 8 WEST B,2015-039B,2026-07-13T06:34:56.783712,1.00271742,.00038819,0.0650,344.5332,121.2748,276.0817,0,U,40875,999,3991,0,-.68E-6,0
GSAT-6,2015-041A,2026-07-13T03:35:23.767296,1.00273507,.00030303,1.9841,82.2729,26.2238,318.8661,0,U,40880,999,3985,0,-.164E-5,0
INMARSAT 5-F3,2015-042A,2026-07-12T19:29:48.554592,1.00270103,.00003375,0.0181,33.1392,168.3559,201.2386,0,U,40882,999,3982,0,.49E-6,0
MUOS-4,2015-044A,2026-07-13T03:15:38.883744,1.00271117,.00565244,4.3770,42.3796,3.3654,9.1683,0,U,40887,999,3982,0,-.98E-6,0
TJS-1,2015-046A,2026-07-13T03:57:38.691360,1.00272892,.00049167,0.3879,84.7600,17.9653,42.7580,0,U,40892,999,3983,0,-.158E-5,0
EXPRESS-AM8,2015-048A,2026-07-13T01:25:13.499328,1.00259882,.00008256,0.0150,316.9781,334.8467,6.4128,0,U,40895,999,3960,0,-.115E-5,0
BEIDOU-3S IGSO-2S,2015-053A,2026-07-13T03:38:30.967584,1.00253027,.00662574,49.1819,258.4722,193.0931,347.6232,0,U,40938,999,3961,0,-.87E-6,0
SKY MUSTER 1 (NBN1A),2015-054A,2026-07-12T22:43:59.971296,1.00271108,.00016549,0.0174,16.8448,101.1615,294.0737,0,U,40940,999,3951,0,0,0
ARSAT 2,2015-054B,2026-07-13T07:51:38.508192,1.00270597,.00018185,0.0400,286.8621,179.2594,221.9948,0,U,40941,999,3956,0,-.228E-5,0
MORELOS 3,2015-056A,2026-07-13T06:39:39.278016,1.00272849,.00003654,3.2083,15.7351,133.5804,128.6664,0,U,40946,999,3954,0,-.48E-6,0
APSTAR-9,2015-059A,2026-07-13T07:17:45.179232,1.00272344,.00030518,0.0206,38.7074,149.5761,354.3471,0,U,40982,999,3938,0,-.268E-5,0
TURKSAT 4B,2015-060A,2026-07-13T05:08:30.291936,1.00271685,.00023397,0.0167,40.7772,79.1895,298.2126,0,U,40984,999,3935,0,.113E-5,0
ZHONGXING-2C,2015-063A,2026-07-13T07:06:46.233216,1.00272822,.00080032,0.3376,88.6879,100.8186,311.8010,0,U,41021,999,3924,0,-.327E-5,0
GSAT-15,2015-065A,2026-07-13T03:38:30.967584,1.00268552,.00035585,0.0253,55.8236,37.1941,346.1586,0,U,41028,999,3905,0,0,0
BADR-7 (ARABSAT-6B),2015-065B,2026-07-13T06:44:18.386304,1.00274668,.00051612,0.0202,259.9192,304.1777,214.1469,0,U,41029,999,3902,0,0,0
