YAMAL 401               
1 40345U 14082A   26194.29359509 -.00000231  00000+0  00000+0 0  9990
2 40345   0.0047 330.6696 0000137 259.7372 256.3920  1.00271458 42188
ASTRA 2G                
1 40364U 14089A   26194.28146170  .00000147  00000+0  00000+0 0  9990
2 40364   0.0496  22.0412 0004188  56.4550 342.2175  1.00274279 42221
FENGYUN 2G              
1 40367U 14090A   26194.60901469 -.00000307  00000+0  00000+0 0  9990
2 40367   5.7033  72.4945 0004213 153.4413  24.0292  1.00260655 42260
MUOS-3                  
1 40374U 15002A   26194.27288166 -.00000135  00000+0  00000+0 0  9996
2 40374   4.5696  43.6218 0053401 177.3600 152.8651  1.00269836 41841
INMARSAT 5-F2           
1 40384U 15005A   26194.12236716 -.00000287  00000+0  00000+0 0  9996
2 40384   0.0187  29.5311 0000376  66.5584 183.9611  1.00271327 41252
ABS-3A                  
1 40424U 15010A   26194.27522167 -.00000029  00000+0  00000+0 0  9995
2 40424   0.0120  33.5801 0001681  27.7191 325.9533  1.00269960 41639
EUTELSAT 115 WEST B     
1 40425U 15010B   26193.61154752 -.00000024  00000+0  00000+0 0  9999
2 40425   0.0077 162.3972 0000372 285.0504 308.3118  1.00271195 41631
EXPRESS-AM7             
1 40505U 15012A   26194.28380171  .00000148  00000+0  00000+0 0  9996
2 40505   0.0142  58.0428 0002666  61.6402 313.6347  1.00269233 41265
BEIDOU-3S IGSO-1S       
1 40549U 15019A   26183.80025122 -.00000190  00000+0  00000+0 0  9997
2 40549  49.1798 295.2769 0076860 219.1125 144.2493  1.00680073 41232
THOR 7                  
1 40613U 15022A   26194.27574167 -.00000011  00000+0  00000+0 0  9996
2 40613   0.0147 103.8058 0002282  10.9562 274.9945  1.00271275 41077
TURKMENALEM52E/MONACOSAT
1 40617U 15023A   26194.21484616  .00000102  00000+0  00000+0 0  9994
2 40617   0.0261  81.0311 0002565  40.1189 299.2927  1.00270269 41107
DIRECTV 15              
1 40663U 15026A   26193.61388753 -.00000102  00000+0  00000+0 0  9997
2 40663   0.0184  70.9457 0000098 201.8573 135.8290  1.00272075 40713
SKY MEXICO-1            
1 40664U 15026B   26194.32752903 -.00000237  00000+0  00000+0 0  9998
2 40664   0.0163  21.9998 0002332 113.5664 194.7487  1.00270516 40710
METEOSAT-11 (MSG-4)     
1 40732U 15034A   26194.20643946  .00000056  00000+0  00000+0 0  9994
2 40732   3.2644  70.9465 0002213 353.5989 310.1074  1.00271240  7479
STAR ONE C4             
1 40733U 15034B   26193.47782669 -.00000264  00000+0  00000+0 0  9991
2 40733   0.0237 346.4388 0001294 104.1987 301.7496  1.00270005 40260
WGS F7 (USA 263)        
1 40746U 15036A   26194.09653753  .00000016  00000+0  00000+0 0  9991
2 40746   0.0121  32.2334 0000181 162.1487 306.3532  1.00271876 40135
INTELSAT 34 (IS-34)     
1 40874U 15039A   26194.10409780 -.00000287  00000+0  00000+0 0  9998
2 40874   0.0107   1.3438 0000492 353.9217 277.7081  1.00271511 39896
EUTELSAT 8 WEST B       
1 40875U 15039B   26194.27426833 -.00000068  00000+0  00000+0 0  9992
2 40875   0.0650 344.5332 0003881 121.2748 276.0817  1.00271742 39913
GSAT-6                  
1 40880U 15041A   26194.14958064 -.00000164  00000+0  00000+0 0  9990
2 40880   1.9841  82.2729 0003030  26.2238 318.8661  1.00273507 39857
INMARSAT 5-F3           
1 40882U 15042A   26193.81236753  .00000049  00000+0  00000+0 0  9991
2 40882   0.0181  33.1392 0000337 168.3559 201.2386  1.00270103 39823
MUOS-4                  
1 40887U 15044A   26194.13586671 -.00000098  00000+0  00000+0 0  9996
2 40887   4.3770  42.3796 0056524   3.3654   9.1683  1.00271117 39823
TJS-1                   
1 40892U 15046A   26194.16503115 -.00000158  00000+0  00000+0 0  9996
2 40892   0.3879  84.7600 0004916  17.9653  42.7580  1.00272892 39838
EXPRESS-AM8             
1 40895U 15048A   26194.05918402 -.00000115  00000+0  00000+0 0  9991
2 40895   0.0150 316.9781 0000825 334.8467   6.4128  1.00259882 39603
BEIDOU-3S IGSO-2S       
1 40938U 15053A   26194.15174731 -.00000087  00000+0  00000+0 0  9993
2 40938  49.1819 258.4722 0066257 193.0931 347.6232  1.00253027 39616
SKY MUSTER 1 (NBN1A)    
1 40940U 15054A   26193.94722189  .00000000  00000+0  00000+0 0  9993
2 40940   0.0174  16.8448 0001654 101.1615 294.0737  1.00271108 39513
ARSAT 2                 
1 40941U 15054B   26194.32752903 -.00000228  00000+0  00000+0 0  9997
2 40941   0.0400 286.8621 0001818 179.2594 221.9948  1.00270597 39561
MORELOS 3               
1 40946U 15056A   26194.27753794 -.00000048  00000+0  00000+0 0  9997
2 40946   3.2083  15.7351 0000365 133.5804 128.6664  1.00272849 39548
APSTAR-9                
1 40982U 15059A   26194.30399513 -.00000268  00000+0  00000+0 0  9993
2 40982   0.0206  38.7074 0003051 149.5761 354.3471  1.00272344 39387
TURKSAT 4B              
1 40984U 15060A   26194.21423949  .00000113  00000+0  00000+0 0  9996
2 40984   0.0167  40.7772 0002339  79.1895 298.2126  1.00271685 39354
ZHONGXING-2C            
1 41021U 15063A   26194.29636844 -.00000327  00000+0  00000+0 0  9998
2 41021   0.3376  88.6879 0008003 100.8186 311.8010  1.00272822 39246
GSAT-15                 
1 41028U 15065A   26194.15174731  .00000000  00000+0  00000+0 0  9991
2 41028   0.0253  55.8236 0003558  37.1941 346.1586  1.00268552 39051
BADR-7 (ARABSAT-6B)     
1 41029U 15065B   26194.28076836  .00000000  00000+0  00000+0 0  9993
2 41029   0.0202 259.9192 0005161 304.1777 214.1469  1.00274668 39026
